{"fetched_at":"2026-07-16T17:46:05.603Z","source":"https://celestrak.org/NORAD/elements/gp.php?GROUP=oneweb&FORMAT=JSON","constellation":"oneweb","records":[{"OBJECT_NAME":"ONEWEB-0233","OBJECT_ID":"2021-045AE","EPOCH":"2026-07-16T03:34:15.006720","CLASSIFICATION_TYPE":"U","MEAN_MOTION":13.15551105,"ECCENTRICITY":0.00022842,"INCLINATION":87.8982,"RA_OF_ASC_NODE":253.4637,"ARG_OF_PERICENTER":104.4698,"MEAN_ANOMALY":255.6686,"EPHEMERIS_TYPE":0,"NORAD_CAT_ID":48795,"ELEMENT_SET_NO":999,"REV_AT_EPOCH":24810,"BSTAR":0.00054688744,"MEAN_MOTION_DOT":0.00000219,"MEAN_MOTION_DDOT":0},{"OBJECT_NAME":"ONEWEB-0190","OBJECT_ID":"2021-045AF","EPOCH":"2026-07-16T05:05:43.627200","CLASSIFICATION_TYPE":"U","MEAN_MOTION":13.15548038,"ECCENTRICITY":0.0002287,"INCLINATION":87.8991,"RA_OF_ASC_NODE":253.4147,"ARG_OF_PERICENTER":116.127,"MEAN_ANOMALY":244.0096,"EPHEMERIS_TYPE":0,"NORAD_CAT_ID":48796,"ELEMENT_SET_NO":999,"REV_AT_EPOCH":24818,"BSTAR":0.00015038996,"MEAN_MOTION_DOT":6.9e-7,"MEAN_MOTION_DDOT":0},{"OBJECT_NAME":"ONEWEB-0236","OBJECT_ID":"2021-045AG","EPOCH":"2026-07-16T03:41:18.522240","CLASSIFICATION_TYPE":"U","MEAN_MOTION":13.15548377,"ECCENTRICITY":0.00021391,"INCLINATION":87.8984,"RA_OF_ASC_NODE":253.4342,"ARG_OF_PERICENTER":95.5426,"MEAN_ANOMALY":264.5948,"EPHEMERIS_TYPE":0,"NORAD_CAT_ID":48797,"ELEMENT_SET_NO":999,"REV_AT_EPOCH":24806,"BSTAR":0.00058153171,"MEAN_MOTION_DOT":0.00000232,"MEAN_MOTION_DDOT":0},{"OBJECT_NAME":"ONEWEB-0248","OBJECT_ID":"2021-045AH","EPOCH":"2026-07-16T03:59:33.037440","CLASSIFICATION_TYPE":"U","MEAN_MOTION":13.15549225,"ECCENTRICITY":0.00024647,"INCLINATION":87.8994,"RA_OF_ASC_NODE":253.4183,"ARG_OF_PERICENTER":106.0294,"MEAN_ANOMALY":254.1108,"EPHEMERIS_TYPE":0,"NORAD_CAT_ID":48798,"ELEMENT_SET_NO":999,"REV_AT_EPOCH":24822,"BSTAR":0.000012350988,"MEAN_MOTION_DOT":1.7e-7,"MEAN_MOTION_DDOT":0},{"OBJECT_NAME":"ONEWEB-0225","OBJECT_ID":"2021-045AJ","EPOCH":"2026-07-16T04:31:30.378720","CLASSIFICATION_TYPE":"U","MEAN_MOTION":13.15547699,"ECCENTRICITY":0.00022816,"INCLINATION":87.8988,"RA_OF_ASC_NODE":253.421,"ARG_OF_PERICENTER":111.855,"MEAN_ANOMALY":248.2823,"EPHEMERIS_TYPE":0,"NORAD_CAT_ID":48799,"ELEMENT_SET_NO":999,"REV_AT_EPOCH":24823,"BSTAR":-0.00040835533,"MEAN_MOTION_DOT":-0.00000141,"MEAN_MOTION_DDOT":0},{"OBJECT_NAME":"ONEWEB-0215","OBJECT_ID":"2021-045AK","EPOCH":"2026-07-16T03:48:08.352000","CLASSIFICATION_TYPE":"U","MEAN_MOTION":13.1554956,"ECCENTRICITY":0.00024297,"INCLINATION":87.8996,"RA_OF_ASC_NODE":253.4109,"ARG_OF_PERICENTER":113.3323,"MEAN_ANOMALY":246.8063,"EPHEMERIS_TYPE":0,"NORAD_CAT_ID":48800,"ELEMENT_SET_NO":999,"REV_AT_EPOCH":24810,"BSTAR":0.00045033921,"MEAN_MOTION_DOT":0.00000182,"MEAN_MOTION_DDOT":0},{"OBJECT_NAME":"ONEWEB-0216","OBJECT_ID":"2021-045AL","EPOCH":"2026-07-16T04:01:50.524896","CLASSIFICATION_TYPE":"U","MEAN_MOTION":13.1554829,"ECCENTRICITY":0.00020171,"INCLINATION":87.8992,"RA_OF_ASC_NODE":253.4226,"ARG_OF_PERICENTER":97.2957,"MEAN_ANOMALY":262.8403,"EPHEMERIS_TYPE":0,"NORAD_CAT_ID":48801,"ELEMENT_SET_NO":999,"REV_AT_EPOCH":24811,"BSTAR":0.000066207025,"MEAN_MOTION_DOT":3.8e-7,"MEAN_MOTION_DDOT":0},{"OBJECT_NAME":"ONEWEB-0239","OBJECT_ID":"2021-045AM","EPOCH":"2026-07-16T04:08:41.363808","CLASSIFICATION_TYPE":"U","MEAN_MOTION":13.15548252,"ECCENTRICITY":0.00027384,"INCLINATION":87.8981,"RA_OF_ASC_NODE":253.4256,"ARG_OF_PERICENTER":110.2736,"MEAN_ANOMALY":249.8689,"EPHEMERIS_TYPE":0,"NORAD_CAT_ID":48802,"ELEMENT_SET_NO":999,"REV_AT_EPOCH":24815,"BSTAR":-0.000077486919,"MEAN_MOTION_DOT":-1.6e-7,"MEAN_MOTION_DDOT":0},{"OBJECT_NAME":"ONEWEB-0249","OBJECT_ID":"2021-060A","EPOCH":"2026-07-16T02:00:32.727168","CLASSIFICATION_TYPE":"U","MEAN_MOTION":13.16592713,"ECCENTRICITY":0.00021704,"INCLINATION":87.908,"RA_OF_ASC_NODE":223.038,"ARG_OF_PERICENTER":95.1533,"MEAN_ANOMALY":264.9846,"EPHEMERIS_TYPE":0,"NORAD_CAT_ID":48967,"ELEMENT_SET_NO":999,"REV_AT_EPOCH":24341,"BSTAR":0.00017553087,"MEAN_MOTION_DOT":8e-7,"MEAN_MOTION_DDOT":0},{"OBJECT_NAME":"ONEWEB-0250","OBJECT_ID":"2021-060B","EPOCH":"2026-07-16T03:16:07.929696","CLASSIFICATION_TYPE":"U","MEAN_MOTION":13.25835235,"ECCENTRICITY":0.00030627,"INCLINATION":87.908,"RA_OF_ASC_NODE":220.6896,"ARG_OF_PERICENTER":85.1535,"MEAN_ANOMALY":274.995,"EPHEMERIS_TYPE":0,"NORAD_CAT_ID":48968,"ELEMENT_SET_NO":999,"REV_AT_EPOCH":24405,"BSTAR":-0.00008666069,"MEAN_MOTION_DOT":-2.5e-7,"MEAN_MOTION_DDOT":0},{"OBJECT_NAME":"ONEWEB-0252","OBJECT_ID":"2021-060D","EPOCH":"2026-07-16T02:45:01.728576","CLASSIFICATION_TYPE":"U","MEAN_MOTION":13.16595029,"ECCENTRICITY":0.00018658,"INCLINATION":87.9078,"RA_OF_ASC_NODE":223.0243,"ARG_OF_PERICENTER":96.3537,"MEAN_ANOMALY":263.7806,"EPHEMERIS_TYPE":0,"NORAD_CAT_ID":48970,"ELEMENT_SET_NO":999,"REV_AT_EPOCH":24346,"BSTAR":-0.000053171822,"MEAN_MOTION_DOT":-7e-8,"MEAN_MOTION_DDOT":0},{"OBJECT_NAME":"ONEWEB-0253","OBJECT_ID":"2021-060E","EPOCH":"2026-07-16T02:29:04.280928","CLASSIFICATION_TYPE":"U","MEAN_MOTION":13.16595195,"ECCENTRICITY":0.00022137,"INCLINATION":87.9079,"RA_OF_ASC_NODE":223.0319,"ARG_OF_PERICENTER":93.5781,"MEAN_ANOMALY":266.5603,"EPHEMERIS_TYPE":0,"NORAD_CAT_ID":48971,"ELEMENT_SET_NO":999,"REV_AT_EPOCH":24339,"BSTAR":-0.00013535652,"MEAN_MOTION_DOT":-3.9e-7,"MEAN_MOTION_DDOT":0},{"OBJECT_NAME":"ONEWEB-0254","OBJECT_ID":"2021-060F","EPOCH":"2026-07-16T02:42:45.647712","CLASSIFICATION_TYPE":"U","MEAN_MOTION":13.16594133,"ECCENTRICITY":0.00023338,"INCLINATION":87.908,"RA_OF_ASC_NODE":223.0281,"ARG_OF_PERICENTER":98.778,"MEAN_ANOMALY":261.3616,"EPHEMERIS_TYPE":0,"NORAD_CAT_ID":48972,"ELEMENT_SET_NO":999,"REV_AT_EPOCH":24339,"BSTAR":-0.000017547571,"MEAN_MOTION_DOT":6e-8,"MEAN_MOTION_DDOT":0},{"OBJECT_NAME":"ONEWEB-0255","OBJECT_ID":"2021-060G","EPOCH":"2026-07-16T07:16:20.954784","CLASSIFICATION_TYPE":"U","MEAN_MOTION":13.16594455,"ECCENTRICITY":0.00021698,"INCLINATION":87.9079,"RA_OF_ASC_NODE":222.9963,"ARG_OF_PERICENTER":97.9017,"MEAN_ANOMALY":262.236,"EPHEMERIS_TYPE":0,"NORAD_CAT_ID":48973,"ELEMENT_SET_NO":999,"REV_AT_EPOCH":24349,"BSTAR":0.000028446857,"MEAN_MOTION_DOT":2.4e-7,"MEAN_MOTION_DDOT":0},{"OBJECT_NAME":"ONEWEB-0256","OBJECT_ID":"2021-060H","EPOCH":"2026-07-16T02:25:39.555264","CLASSIFICATION_TYPE":"U","MEAN_MOTION":13.16582443,"ECCENTRICITY":0.00018225,"INCLINATION":87.9079,"RA_OF_ASC_NODE":223.0392,"ARG_OF_PERICENTER":92.9547,"MEAN_ANOMALY":267.1792,"EPHEMERIS_TYPE":0,"NORAD_CAT_ID":48974,"ELEMENT_SET_NO":999,"REV_AT_EPOCH":24343,"BSTAR":-0.0028512442,"MEAN_MOTION_DOT":-0.00001077,"MEAN_MOTION_DDOT":0},{"OBJECT_NAME":"ONEWEB-0257","OBJECT_ID":"2021-060J","EPOCH":"2026-07-16T03:12:23.899680","CLASSIFICATION_TYPE":"U","MEAN_MOTION":13.16593794,"ECCENTRICITY":0.00020502,"INCLINATION":87.9076,"RA_OF_ASC_NODE":223.0215,"ARG_OF_PERICENTER":98.3909,"MEAN_ANOMALY":261.7455,"EPHEMERIS_TYPE":0,"NORAD_CAT_ID":48975,"ELEMENT_SET_NO":999,"REV_AT_EPOCH":24339,"BSTAR":0.00020743386,"MEAN_MOTION_DOT":9.2e-7,"MEAN_MOTION_DDOT":0}]}
